[{"OBJECT_NAME":"CUTE-1.7+APD II (CO-65)","OBJECT_ID":"2008-021C","EPOCH":"2025-09-19T12:53:33.844128","MEAN_MOTION":15.05454752,"ECCENTRICITY":0.00082509,"INCLINATION":97.7964,"RA_OF_ASC_NODE":234.5808,"ARG_OF_PERICENTER":218.8357,"MEAN_ANOMALY":141.2277,"EPHEMERIS_TYPE":0,"CLASSIFICATION_TYPE":"U","NORAD_CAT_ID":32785,"ELEMENT_SET_NO":999,"REV_AT_EPOCH":94441,"BSTAR":0.00042148754,"MEAN_MOTION_DOT":5.996e-5,"MEAN_MOTION_DDOT":0},{"OBJECT_NAME":"SEEDS II (CO-66)","OBJECT_ID":"2008-021J","EPOCH":"2025-09-19T11:46:36.701184","MEAN_MOTION":15.21207175,"ECCENTRICITY":0.0004809,"INCLINATION":97.737,"RA_OF_ASC_NODE":245.0254,"ARG_OF_PERICENTER":140.1404,"MEAN_ANOMALY":220.0185,"EPHEMERIS_TYPE":0,"CLASSIFICATION_TYPE":"U","NORAD_CAT_ID":32791,"ELEMENT_SET_NO":999,"REV_AT_EPOCH":94597,"BSTAR":0.00062370027,"MEAN_MOTION_DOT":0.0001386,"MEAN_MOTION_DDOT":0},{"OBJECT_NAME":"YUBILEINY (RS-30)","OBJECT_ID":"2008-025A","EPOCH":"2025-09-19T16:34:41.535264","MEAN_MOTION":12.43168089,"ECCENTRICITY":0.00187099,"INCLINATION":82.5067,"RA_OF_ASC_NODE":163.6935,"ARG_OF_PERICENTER":179.6543,"MEAN_ANOMALY":180.4553,"EPHEMERIS_TYPE":0,"CLASSIFICATION_TYPE":"U","NORAD_CAT_ID":32953,"ELEMENT_SET_NO":999,"REV_AT_EPOCH":78608,"BSTAR":5.63242e-7,"MEAN_MOTION_DOT":1.0e-7,"MEAN_MOTION_DDOT":0},{"OBJECT_NAME":"KKS-1 (KISEKI)","OBJECT_ID":"2009-002H","EPOCH":"2025-09-19T11:47:10.092192","MEAN_MOTION":14.81925643,"ECCENTRICITY":0.0009639,"INCLINATION":98.1124,"RA_OF_ASC_NODE":175.9198,"ARG_OF_PERICENTER":87.2153,"MEAN_ANOMALY":273.0162,"EPHEMERIS_TYPE":0,"CLASSIFICATION_TYPE":"U","NORAD_CAT_ID":33499,"ELEMENT_SET_NO":999,"REV_AT_EPOCH":89608,"BSTAR":0.00019940838,"MEAN_MOTION_DOT":1.525e-5,"MEAN_MOTION_DDOT":0},{"OBJECT_NAME":"SWISSCUBE","OBJECT_ID":"2009-051B","EPOCH":"2025-09-19T10:32:52.863072","MEAN_MOTION":14.61567596,"ECCENTRICITY":0.00066852,"INCLINATION":98.4164,"RA_OF_ASC_NODE":160.5288,"ARG_OF_PERICENTER":347.4077,"MEAN_ANOMALY":12.6955,"EPHEMERIS_TYPE":0,"CLASSIFICATION_TYPE":"U","NORAD_CAT_ID":35932,"ELEMENT_SET_NO":999,"REV_AT_EPOCH":84959,"BSTAR":0.00024442107,"MEAN_MOTION_DOT":1.165e-5,"MEAN_MOTION_DDOT":0},{"OBJECT_NAME":"BEESAT-1","OBJECT_ID":"2009-051C","EPOCH":"2025-09-19T12:34:58.763136","MEAN_MOTION":14.60946607,"ECCENTRICITY":0.00054636,"INCLINATION":98.4094,"RA_OF_ASC_NODE":160.7853,"ARG_OF_PERICENTER":3.5736,"MEAN_ANOMALY":356.5502,"EPHEMERIS_TYPE":0,"CLASSIFICATION_TYPE":"U","NORAD_CAT_ID":35933,"ELEMENT_SET_NO":999,"REV_AT_EPOCH":84965,"BSTAR":0.000205382,"MEAN_MOTION_DOT":9.57e-6,"MEAN_MOTION_DDOT":0},{"OBJECT_NAME":"ITUPSAT1","OBJECT_ID":"2009-051E","EPOCH":"2025-09-19T15:00:48.396960","MEAN_MOTION":14.59729502,"ECCENTRICITY":0.00078536,"INCLINATION":98.4186,"RA_OF_ASC_NODE":160.343,"ARG_OF_PERICENTER":8.0441,"MEAN_ANOMALY":352.0883,"EPHEMERIS_TYPE":0,"CLASSIFICATION_TYPE":"U","NORAD_CAT_ID":35935,"ELEMENT_SET_NO":999,"REV_AT_EPOCH":84925,"BSTAR":0.00019789459,"MEAN_MOTION_DOT":8.96e-6,"MEAN_MOTION_DDOT":0},{"OBJECT_NAME":"XIWANG-1 (HOPE-1)","OBJECT_ID":"2009-072B","EPOCH":"2025-09-19T12:49:03.670464","MEAN_MOTION":13.16428203,"ECCENTRICITY":0.00079273,"INCLINATION":100.3599,"RA_OF_ASC_NODE":216.1985,"ARG_OF_PERICENTER":128.6517,"MEAN_ANOMALY":231.5307,"EPHEMERIS_TYPE":0,"CLASSIFICATION_TYPE":"U","NORAD_CAT_ID":36122,"ELEMENT_SET_NO":999,"REV_AT_EPOCH":75739,"BSTAR":6.6370588e-5,"MEAN_MOTION_DOT":-1.9e-7,"MEAN_MOTION_DDOT":0},{"OBJECT_NAME":"O/OREOS (USA 219)","OBJECT_ID":"2010-062C","EPOCH":"2025-09-19T13:35:46.499424","MEAN_MOTION":14.91953088,"ECCENTRICITY":0.00162475,"INCLINATION":71.9733,"RA_OF_ASC_NODE":332.6023,"ARG_OF_PERICENTER":228.4955,"MEAN_ANOMALY":131.4822,"EPHEMERIS_TYPE":0,"CLASSIFICATION_TYPE":"U","NORAD_CAT_ID":37224,"ELEMENT_SET_NO":999,"REV_AT_EPOCH":7625,"BSTAR":0.00022701639,"MEAN_MOTION_DOT":2.243e-5,"MEAN_MOTION_DDOT":0},{"OBJECT_NAME":"JUGNU","OBJECT_ID":"2011-058B","EPOCH":"2025-09-19T10:05:56.730336","MEAN_MOTION":14.13638733,"ECCENTRICITY":0.00185106,"INCLINATION":19.9598,"RA_OF_ASC_NODE":153.2806,"ARG_OF_PERICENTER":326.2922,"MEAN_ANOMALY":193.7108,"EPHEMERIS_TYPE":0,"CLASSIFICATION_TYPE":"U","NORAD_CAT_ID":37839,"ELEMENT_SET_NO":999,"REV_AT_EPOCH":72066,"BSTAR":0.00010081184,"MEAN_MOTION_DOT":4.6e-6,"MEAN_MOTION_DDOT":0},{"OBJECT_NAME":"SRMSAT","OBJECT_ID":"2011-058D","EPOCH":"2025-09-19T07:43:31.781568","MEAN_MOTION":14.11465495,"ECCENTRICITY":0.00119667,"INCLINATION":19.9714,"RA_OF_ASC_NODE":258.8539,"ARG_OF_PERICENTER":104.0296,"MEAN_ANOMALY":284.4293,"EPHEMERIS_TYPE":0,"CLASSIFICATION_TYPE":"U","NORAD_CAT_ID":37841,"ELEMENT_SET_NO":999,"REV_AT_EPOCH":71950,"BSTAR":8.3907475e-5,"MEAN_MOTION_DOT":4.19e-6,"MEAN_MOTION_DDOT":0},{"OBJECT_NAME":"STRAND-1","OBJECT_ID":"2013-009E","EPOCH":"2025-09-19T11:37:30.205632","MEAN_MOTION":14.36890959,"ECCENTRICITY":0.00080336,"INCLINATION":98.3854,"RA_OF_ASC_NODE":84.5315,"ARG_OF_PERICENTER":326.9675,"MEAN_ANOMALY":33.1009,"EPHEMERIS_TYPE":0,"CLASSIFICATION_TYPE":"U","NORAD_CAT_ID":39090,"ELEMENT_SET_NO":999,"REV_AT_EPOCH":65818,"BSTAR":0.00011885775,"MEAN_MOTION_DOT":3.09e-6,"MEAN_MOTION_DDOT":0},{"OBJECT_NAME":"ZACUBE-1 (TSHEPISOSAT)","OBJECT_ID":"2013-066B","EPOCH":"2025-09-19T10:45:53.023104","MEAN_MOTION":14.97559243,"ECCENTRICITY":0.00456662,"INCLINATION":97.791,"RA_OF_ASC_NODE":219.0303,"ARG_OF_PERICENTER":72.2012,"MEAN_ANOMALY":288.4185,"EPHEMERIS_TYPE":0,"CLASSIFICATION_TYPE":"U","NORAD_CAT_ID":39417,"ELEMENT_SET_NO":999,"REV_AT_EPOCH":64015,"BSTAR":0.00041736209,"MEAN_MOTION_DOT":4.916e-5,"MEAN_MOTION_DDOT":0},{"OBJECT_NAME":"GOMX-1","OBJECT_ID":"2013-066Q","EPOCH":"2025-09-19T12:51:35.542656","MEAN_MOTION":14.68013912,"ECCENTRICITY":0.01304967,"INCLINATION":97.6714,"RA_OF_ASC_NODE":114.9146,"ARG_OF_PERICENTER":225.6217,"MEAN_ANOMALY":133.4243,"EPHEMERIS_TYPE":0,"CLASSIFICATION_TYPE":"U","NORAD_CAT_ID":39430,"ELEMENT_SET_NO":999,"REV_AT_EPOCH":63018,"BSTAR":0.00030166681,"MEAN_MOTION_DOT":1.915e-5,"MEAN_MOTION_DDOT":0},{"OBJECT_NAME":"CUBEBUG-2 (LO-74)","OBJECT_ID":"2013-066AA","EPOCH":"2025-09-19T09:34:13.218240","MEAN_MOTION":14.9069831,"ECCENTRICITY":0.00602553,"INCLINATION":97.8558,"RA_OF_ASC_NODE":206.3336,"ARG_OF_PERICENTER":202.2694,"MEAN_ANOMALY":157.5906,"EPHEMERIS_TYPE":0,"CLASSIFICATION_TYPE":"U","NORAD_CAT_ID":39440,"ELEMENT_SET_NO":999,"REV_AT_EPOCH":63660,"BSTAR":0.00038223127,"MEAN_MOTION_DOT":3.822e-5,"MEAN_MOTION_DDOT":0},{"OBJECT_NAME":"FUNCUBE-1 (AO-73)","OBJECT_ID":"2013-066AE","EPOCH":"2025-09-19T11:28:02.198208","MEAN_MOTION":15.03692508,"ECCENTRICITY":0.00428207,"INCLINATION":97.7925,"RA_OF_ASC_NODE":224.9203,"ARG_OF_PERICENTER":45.1662,"MEAN_ANOMALY":315.3029,"EPHEMERIS_TYPE":0,"CLASSIFICATION_TYPE":"U","NORAD_CAT_ID":39444,"ELEMENT_SET_NO":999,"REV_AT_EPOCH":63889,"BSTAR":0.00058592436,"MEAN_MOTION_DOT":8.132e-5,"MEAN_MOTION_DDOT":0}]
