CUTE-1.7+APD II (CO-65) 
1 32785U 08021C   25262.53719727  .00005996  00000+0  42149-3 0  9995
2 32785  97.7964 234.5808 0008250 218.8357 141.2277 15.05454752944412
SEEDS II (CO-66)        
1 32791U 08021J   25262.49070256  .00013860  00000+0  62370-3 0  9991
2 32791  97.7370 245.0254 0004809 140.1404 220.0185 15.21207175945977
YUBILEINY (RS-30)       
1 32953U 08025A   25262.69075851  .00000010  00000+0  56324-6 0  9991
2 32953  82.5067 163.6935 0018709 179.6543 180.4553 12.43168089786082
KKS-1 (KISEKI)          
1 33499U 09002H   25262.49108903  .00001525  00000+0  19941-3 0  9999
2 33499  98.1124 175.9198 0009639  87.2153 273.0162 14.81925643896083
SWISSCUBE               
1 35932U 09051B   25262.43950073  .00001165  00000+0  24442-3 0  9996
2 35932  98.4164 160.5288 0006685 347.4077  12.6955 14.61567596849596
BEESAT-1                
1 35933U 09051C   25262.52429124  .00000957  00000+0  20538-3 0  9995
2 35933  98.4094 160.7853 0005463   3.5736 356.5502 14.60946607849652
ITUPSAT1                
1 35935U 09051E   25262.62556015  .00000896  00000+0  19789-3 0  9996
2 35935  98.4186 160.3430 0007853   8.0441 352.0883 14.59729502849251
XIWANG-1 (HOPE-1)       
1 36122U 09072B   25262.53407026 -.00000019  00000+0  66371-4 0  9993
2 36122 100.3599 216.1985 0007927 128.6517 231.5307 13.16428203757392
O/OREOS (USA 219)       
1 37224U 10062C   25262.56651041  .00002243  00000+0  22702-3 0  9998
2 37224  71.9733 332.6023 0016247 228.4955 131.4822 14.91953088 76253
JUGNU                   
1 37839U 11058B   25262.42079549  .00000460  00000+0  10081-3 0  9994
2 37839  19.9598 153.2806 0018510 326.2922 193.7108 14.13638733720668
SRMSAT                  
1 37841U 11058D   25262.32189562  .00000419  00000+0  83907-4 0  9995
2 37841  19.9714 258.8539 0011966 104.0296 284.4293 14.11465495719505
STRAND-1                
1 39090U 13009E   25262.48437738  .00000309  00000+0  11886-3 0  9993
2 39090  98.3854  84.5315 0008033 326.9675  33.1009 14.36890959658186
ZACUBE-1 (TSHEPISOSAT)  
1 39417U 13066B   25262.44853036  .00004916  00000+0  41736-3 0  9993
2 39417  97.7910 219.0303 0045666  72.2012 288.4185 14.97559243640159
GOMX-1                  
1 39430U 13066Q   25262.53582804  .00001915  00000+0  30167-3 0  9992
2 39430  97.6714 114.9146 0130496 225.6217 133.4243 14.68013912630182
CUBEBUG-2 (LO-74)       
1 39440U 13066AA  25262.39876410  .00003822  00000+0  38223-3 0  9996
2 39440  97.8558 206.3336 0060255 202.2694 157.5906 14.90698310636605
FUNCUBE-1 (AO-73)       
1 39444U 13066AE  25262.47780322  .00008132  00000+0  58592-3 0  9995
2 39444  97.7925 224.9203 0042820  45.1662 315.3029 15.03692508638893
